GLOBALSTAR M079 [+]     
1 37188U 10054A   23102.61020270 -.00000097  00000+0  39988-4 0  9990
2 37188  52.0057  44.6930 0000603  55.3714 116.0952 12.62270469575851
GLOBALSTAR M074 [+]     
1 37189U 10054B   23102.55739284 -.00000100  00000+0  20083-4 0  9997
2 37189  52.0033  44.3006 0000558  70.4635 100.6493 12.62276759576450
GLOBALSTAR M076 [+]     
1 37190U 10054C   23102.58403219 -.00000089  00000+0  81639-4 0  9998
2 37190  52.0048  44.3202 0000998  59.1660 111.5910 12.62272990576173
GLOBALSTAR M077 [+]     
1 37191U 10054D   23102.17332420 -.00000097  00000+0  35636-4 0  9994
2 37191  52.0098   2.1982 0000792  80.7304  83.7242 12.62274509576494
GLOBALSTAR M075 [+]     
1 37192U 10054E   23102.24560578 -.00000115  00000+0 -65073-4 0  9990
2 37192  51.9936  88.0463 0000428  41.5752 333.0368 12.62266889575366
GLOBALSTAR M073 [+]     
1 37193U 10054F   23102.11659230 -.00000075  00000+0  15873-3 0  9997
2 37193  52.0086   1.6545 0000771  79.5150  68.2103 12.62269303577170
GLOBALSTAR M083 [+]     
1 37739U 11033A   23102.57634793 -.00000065  00000+0  21570-3 0  9998
2 37739  51.9864 310.0754 0000508 102.9843 275.6396 12.62264705546259
GLOBALSTAR M088 [+]     
1 37740U 11033B   23102.48393187 -.00000086  00000+0  10043-3 0  9995
2 37740  51.9728 216.5165 0000274 113.2788 325.0923 12.62267888541783
GLOBALSTAR M091 [+]     
1 37741U 11033C   23102.50330712 -.00000091  00000+0  69623-4 0  9999
2 37741  51.9986 178.5883 0000105 109.9598 355.8387 12.62273598542576
GLOBALSTAR M085 [+]     
1 37742U 11033D   23102.41086737 -.00000107  00000+0 -15484-4 0  9990
2 37742  51.9846 130.6129 0000105  56.7781  49.2723 12.62268857543073
GLOBALSTAR M081 [+]     
1 37743U 11033E   23102.27332802 -.00000102  00000+0  11139-4 0  9999
2 37743  51.9935 133.3285 0000290  35.4913  44.4089 12.62266998543203
GLOBALSTAR M089 [+]     
1 37744U 11033F   23102.41064125 -.00000102  00000+0  12030-4 0  9997
2 37744  51.9918  87.2845 0000651  72.9887  91.8360 12.62268063544069
GLOBALSTAR M084 [+]     
1 38040U 11080A   23102.54992644 -.00000070  00000+0  18771-3 0  9990
2 38040  52.0014 313.7320 0000994  93.5062 283.7738 12.62269532522066
GLOBALSTAR M080 [+]     
1 38041U 11080B   23102.08078703 -.00000075  00000+0  16083-3 0  9990
2 38041  52.0069 316.4856 0001095  86.4417  78.8646 12.62264851522126
GLOBALSTAR M082 [+]     
1 38042U 11080C   23102.45986503 -.00000081  00000+0  12739-3 0  9999
2 38042  52.0074 270.6947 0000474 159.5876 227.5375 12.62282819522885
GLOBALSTAR M092 [+]     
1 38043U 11080D   23102.14700535 -.00000088  00000+0  87871-4 0  9992
2 38043  52.0110   1.9799 0000994  93.7976  71.3002 12.62267634521298
GLOBALSTAR M090 [+]     
1 38044U 11080E   23102.40397529 -.00000084  00000+0  11021-3 0  9996
2 38044  51.9877 265.6980 0000508 106.4422 268.1015 12.62271384522992
GLOBALSTAR M086 [+]     
1 38045U 11080F   23102.43124458 -.00000075  00000+0  15878-3 0  9993
2 38045  51.9888 266.1042 0001104  35.7265 342.7448 12.62266239522949
GLOBALSTAR M097 [+]     
1 39072U 13005A   23102.53310445 -.00000088  00000+0  87311-4 0  9993
2 39072  52.0037 179.5328 0000104 100.3652 259.7226 12.62264632470207
GLOBALSTAR M093 [+]     
1 39073U 13005B   23102.50635318 -.00000088  00000+0  88322-4 0  9993
2 39073  51.9797 174.1910 0000139 339.6616  20.4245 12.62265417470152
GLOBALSTAR M094 [+]     
1 39074U 13005C   23102.26895867 -.00000110  00000+0 -35758-4 0  9996
2 39074  51.9947  88.4977 0000373  43.1867 316.9029 12.62269621471734
GLOBALSTAR M096 [+]     
1 39075U 13005D   23102.36135243 -.00000104  00000+0 -38116-5 0  9998
2 39075  52.0052 136.1107 0000153 359.8254   0.2612 12.62267677470664
GLOBALSTAR M078 [+]     
1 39076U 13005E   23102.57178296 -.00000181  00000+0 -42858-3 0  9998
2 39076  51.9873 221.0583 0000914 183.2283 176.8578 12.62265226469311
GLOBALSTAR M095 [+]     
1 39077U 13005F   23102.51980931 -.00000087  00000+0  96346-4 0  9996
2 39077  51.9794 218.8141 0000436 192.8317 167.2539 12.62265323469163
GLOBALSTAR M087 [+]     
1 52888U 22064A   23102.20546873 -.00000128  00000+0  00000+0 0  9998
2 52888  51.9793 274.6434 0008955 351.0336   9.0406 13.37542879 39713
